OBJECT_NAME,OBJECT_ID,EPOCH,MEAN_MOTION,ECCENTRICITY,INCLINATION,RA_OF_ASC_NODE,ARG_OF_PERICENTER,MEAN_ANOMALY,EPHEMERIS_TYPE,CLASSIFICATION_TYPE,NORAD_CAT_ID,ELEMENT_SET_NO,REV_AT_EPOCH,BSTAR,MEAN_MOTION_DOT,MEAN_MOTION_DDOT
STARLINK-32050,2024-120C,2026-06-14T11:52:25.214592,15.34390389,.00011824,53.1597,229.8437,81.9041,278.2095,0,U,60137,999,11120,-.1607474E-4,-.919E-5,0
STARLINK-32025,2024-120D,2026-06-14T11:13:01.031520,15.34400525,.00011563,53.1607,229.6676,98.1077,262.0056,0,U,60138,999,11120,.3854015E-4,.926E-5,0
STARLINK-31694,2024-120F,2026-06-14T10:45:52.966944,15.34395222,.00011849,53.1605,230.2627,87.0652,273.0486,0,U,60140,999,11127,-.31918293E-4,-.1454E-4,0
STARLINK-32036,2024-120G,2026-06-14T10:54:58.185504,15.34398227,.00009144,53.1594,230.3025,81.8663,278.2444,0,U,60141,999,11127,.972987E-5,-.47E-6,0
STARLINK-32031,2024-120H,2026-06-14T11:09:58.654944,15.34419699,.00011592,53.1608,229.6590,105.4693,254.6438,0,U,60142,999,11128,-.10176027E-3,-.3815E-4,0
STARLINK-32027,2024-120J,2026-06-14T11:16:02.563968,15.34397346,.00013445,53.1604,229.6416,101.2153,258.9001,0,U,60143,999,11128,.13373686E-4,.76E-6,0
STARLINK-32033,2024-120K,2026-06-14T10:54:46.973376,15.30200895,.0001058,53.1595,230.2997,86.3956,273.7166,0,U,60144,999,11119,.6382669E-5,-.17E-5,0
STARLINK-32029,2024-120L,2026-06-14T11:31:12.623808,15.34400935,.00012301,53.1597,229.7472,102.1532,257.9609,0,U,60145,999,11120,-.6537028E-4,-.2584E-4,0
STARLINK-32127,2024-120M,2026-06-14T20:47:55.423680,15.34393228,.0001142,53.1606,227.8941,93.0266,267.0867,0,U,60146,999,11126,-.17518E-4,-.968E-5,0
STARLINK-32019,2024-120N,2026-06-14T20:50:57.174720,15.34386141,.0001405,53.1584,227.9082,86.5243,273.5920,0,U,60147,999,11126,.11728E-3,.3586E-4,0
STARLINK-32021,2024-120P,2026-06-14T18:06:58.975200,15.32114977,.0002447,53.1601,218.6635,8.6201,351.4842,0,U,60148,999,11146,.16388E-2,.5151E-3,0
STARLINK-32022,2024-120Q,2026-06-14T11:58:28.165440,15.34391892,.00011557,53.1596,229.8620,90.2964,269.8171,0,U,60149,999,11128,-.8084154E-5,-.649E-5,0
STARLINK-32014,2024-120R,2026-06-14T20:00:04.998816,15.33556354,.0001148,53.1597,228.5007,82.4472,223.2921,0,U,60150,999,559,-.36703E-3,-.12426E-3,0
STARLINK-32004,2024-120S,2026-06-14T10:42:50.943744,15.34377408,.00012715,53.1610,230.2448,82.7047,277.4100,0,U,60151,999,11127,.48419604E-4,.1259E-4,0
STARLINK-32147,2024-120T,2026-06-14T12:01:30.252576,15.34388012,.00012468,53.1600,229.8797,87.1517,272.9629,0,U,60152,999,11120,-.7164199E-5,-.618E-5,0
STARLINK-32131,2024-120U,2026-06-14T20:44:53.604384,15.34389531,.0001154,53.1604,227.8809,97.9988,262.1146,0,U,60153,999,11134,-.98679E-5,-.709E-5,0
STARLINK-32145,2024-120V,2026-06-14T11:19:04.808352,15.34398782,.00012161,53.1605,229.6928,100.6507,259.4633,0,U,60154,999,11120,-.295181E-5,-.476E-5,0
STARLINK-32137,2024-120W,2026-06-14T11:49:23.086848,15.34390699,.00011518,53.1601,229.8251,87.0502,273.0632,0,U,60155,999,11120,.13937E-7,-.376E-5,0
STARLINK-32048,2024-120X,2026-06-14T11:40:17.900256,15.34354682,.00013033,53.1597,229.7839,107.0649,253.0496,0,U,60156,999,11120,.21716314E-3,.6957E-4,0
STARLINK-32129,2024-120Y,2026-06-14T11:43:19.327296,15.34399822,.00011852,53.1595,229.7975,92.0407,268.0731,0,U,60157,999,11128,.11328089E-3,.3453E-4,0
STARLINK-11168 [DTC],2024-124A,2026-06-14T20:08:27.971232,15.69730626,.0000685,53.1594,42.2690,60.7654,299.3432,0,U,60183,999,11298,.50842E-5,.28E-6,0
STARLINK-11187 [DTC],2024-124B,2026-06-14T20:01:25.617792,15.69699120,.0000986,53.1598,42.2301,99.5573,260.5556,0,U,60184,999,11179,.9574E-5,.571E-5,0
STARLINK-11180 [DTC],2024-124C,2026-06-14T19:54:22.582656,15.69654819,.0001396,53.1595,42.1983,91.7338,268.3840,0,U,60185,999,11179,.91636E-4,.10502E-3,0
STARLINK-11197 [DTC],2024-124D,2026-06-14T19:47:17.932704,15.69705894,.0000891,53.1601,42.1641,95.8848,264.2272,0,U,60186,999,11179,-.10408E-5,-.714E-5,0
STARLINK-11194 [DTC],2024-124E,2026-06-14T08:58:26.136768,15.69716444,.00010626,53.1594,44.3303,131.8709,228.2400,0,U,60187,999,11172,.5736971E-5,.107E-5,0
STARLINK-11189 [DTC],2024-124F,2026-06-14T08:51:31.650048,15.69713346,.00011396,53.1597,45.0312,85.6492,274.4657,0,U,60188,999,11171,.11631888E-4,.821E-5,0
STARLINK-11183 [DTC],2024-124G,2026-06-14T20:57:56.486016,15.69698550,.0001176,53.1604,42.4878,85.2530,274.8623,0,U,60189,999,11179,.10533E-4,.687E-5,0
STARLINK-11179 [DTC],2024-124H,2026-06-14T20:50:52.831392,15.69693543,.0000881,53.1591,42.4514,107.3102,252.8012,0,U,60190,999,11179,.32099E-6,-.549E-5,0
STARLINK-11175 [DTC],2024-124J,2026-06-14T20:43:48.818208,15.69700932,.0000948,53.1594,42.4221,94.8728,265.2398,0,U,60191,999,11179,.10716E-4,.71E-5,0
STARLINK-11173 [DTC],2024-124K,2026-06-14T20:36:44.316000,15.69708177,.0000871,53.1583,42.3899,93.5061,266.6056,0,U,60192,999,11179,.70832E-5,.27E-5,0
