STARLINK-32050          
1 60137U 24120C   26165.49473628 -.00000919  00000+0 -16075-4 0  9992
2 60137  53.1597 229.8437 0001182  81.9041 278.2095 15.34390389111202
STARLINK-32025          
1 60138U 24120D   26165.46737305  .00000926  00000+0  38540-4 0  9992
2 60138  53.1607 229.6676 0001156  98.1077 262.0056 15.34400525111200
STARLINK-31694          
1 60140U 24120F   26165.44852971 -.00001454  00000+0 -31918-4 0  9991
2 60140  53.1605 230.2627 0001184  87.0652 273.0486 15.34395222111275
STARLINK-32036          
1 60141U 24120G   26165.45484011 -.00000047  00000+0  97299-5 0  9990
2 60141  53.1594 230.3025 0000914  81.8663 278.2444 15.34398227111279
STARLINK-32031          
1 60142U 24120H   26165.46526221 -.00003815  00000+0 -10176-3 0  9996
2 60142  53.1608 229.6590 0001159 105.4693 254.6438 15.34419699111281
STARLINK-32027          
1 60143U 24120J   26165.46947412  .00000076  00000+0  13374-4 0  9994
2 60143  53.1604 229.6416 0001344 101.2153 258.9001 15.34397346111283
STARLINK-32033          
1 60144U 24120K   26165.45471034 -.00000170  00000+0  63827-5 0  9991
2 60144  53.1595 230.2997 0001058  86.3956 273.7166 15.30200895111196
STARLINK-32029          
1 60145U 24120L   26165.48000722 -.00002584  00000+0 -65370-4 0  9993
2 60145  53.1597 229.7472 0001230 102.1532 257.9609 15.34400935111208
STARLINK-32127          
1 60146U 24120M   26165.86661370 -.00000968  00000+0 -17518-4 0  9993
2 60146  53.1606 227.8941 0001142  93.0266 267.0867 15.34393228111264
STARLINK-32019          
1 60147U 24120N   26165.86871730  .00003586  00000+0  11728-3 0  9990
2 60147  53.1584 227.9082 0001405  86.5243 273.5920 15.34386141111269
STARLINK-32021          
1 60148U 24120P   26165.75484925  .00051510  00000+0  16388-2 0  9991
2 60148  53.1601 218.6635 0002447   8.6201 351.4842 15.32114977111462
STARLINK-32022          
1 60149U 24120Q   26165.49893710 -.00000649  00000+0 -80842-5 0  9997
2 60149  53.1596 229.8620 0001155  90.2964 269.8171 15.34391892111284
STARLINK-32014          
1 60150U 24120R   26165.83339119 -.00012426  00000+0 -36703-3 0  9996
2 60150  53.1597 228.5007 0001148  82.4472 223.2921 15.33556354  5599
STARLINK-32004          
1 60151U 24120S   26165.44642296  .00001259  00000+0  48420-4 0  9997
2 60151  53.1610 230.2448 0001271  82.7047 277.4100 15.34377408111278
STARLINK-32147          
1 60152U 24120T   26165.50104459 -.00000618  00000+0 -71642-5 0  9992
2 60152  53.1600 229.8797 0001246  87.1517 272.9629 15.34388012111204
STARLINK-32131          
1 60153U 24120U   26165.86450931 -.00000709  00000+0 -98679-5 0  9991
2 60153  53.1604 227.8809 0001154  97.9988 262.1146 15.34389531111347
STARLINK-32145          
1 60154U 24120V   26165.47158343 -.00000476  00000+0 -29518-5 0  9998
2 60154  53.1605 229.6928 0001216 100.6507 259.4633 15.34398782111202
STARLINK-32137          
1 60155U 24120W   26165.49262832 -.00000376  00000+0  13937-7 0  9998
2 60155  53.1601 229.8251 0001151  87.0502 273.0632 15.34390699111201
STARLINK-32048          
1 60156U 24120X   26165.48631829  .00006957  00000+0  21716-3 0  9994
2 60156  53.1597 229.7839 0001303 107.0649 253.0496 15.34354682111209
STARLINK-32129          
1 60157U 24120Y   26165.48841814  .00003453  00000+0  11328-3 0  9998
2 60157  53.1595 229.7975 0001185  92.0407 268.0731 15.34399822111283
STARLINK-11168 [DTC]    
1 60183U 24124A   26165.83921263  .00000028  00000+0  50842-5 0  9998
2 60183  53.1594  42.2690 0000685  60.7654 299.3432 15.69730626112985
STARLINK-11187 [DTC]    
1 60184U 24124B   26165.83432428  .00000571  00000+0  95740-5 0  9998
2 60184  53.1598  42.2301 0000986  99.5573 260.5556 15.69699120111791
STARLINK-11180 [DTC]    
1 60185U 24124C   26165.82942804  .00010502  00000+0  91636-4 0  9996
2 60185  53.1595  42.1983 0001396  91.7338 268.3840 15.69654819111791
STARLINK-11197 [DTC]    
1 60186U 24124D   26165.82451311 -.00000714  00000+0 -10408-5 0  9990
2 60186  53.1601  42.1641 0000891  95.8848 264.2272 15.69705894111795
STARLINK-11194 [DTC]    
1 60187U 24124E   26165.37391362  .00000107  00000+0  57370-5 0  9993
2 60187  53.1594  44.3303 0001062 131.8709 228.2400 15.69716444111723
STARLINK-11189 [DTC]    
1 60188U 24124F   26165.36911632  .00000821  00000+0  11632-4 0  9994
2 60188  53.1597  45.0312 0001139  85.6492 274.4657 15.69713346111719
STARLINK-11183 [DTC]    
1 60189U 24124G   26165.87357044  .00000687  00000+0  10533-4 0  9991
2 60189  53.1604  42.4878 0001176  85.2530 274.8623 15.69698550111791
STARLINK-11179 [DTC]    
1 60190U 24124H   26165.86866703 -.00000549  00000+0  32099-6 0  9990
2 60190  53.1591  42.4514 0000881 107.3102 252.8012 15.69693543111793
STARLINK-11175 [DTC]    
1 60191U 24124J   26165.86375947  .00000710  00000+0  10716-4 0  9995
2 60191  53.1594  42.4221 0000948  94.8728 265.2398 15.69700932111796
STARLINK-11173 [DTC]    
1 60192U 24124K   26165.85884625  .00000270  00000+0  70832-5 0  9990
2 60192  53.1583  42.3899 0000871  93.5061 266.6056 15.69708177111791
